0 FENGYUN 1C DEB
1 35090U 99025DJS 13281.05241260  .00001809  00000-0  12315-2 0  3678
2 35090 098.9517 220.0337 0068601 163.8357 196.5018 14.00092789258992
0 FENGYUN 1C DEB
1 35090U 99025DJS 13283.05338980  .00001861  00000-0  12662-2 0  3680
2 35090 098.9579 221.9962 0068197 158.1747 202.2347 14.00103259259271
0 FENGYUN 1C DEB
1 35090U 99025DJS 13287.05530159  .00001931  00000-0  13120-2 0  3707
2 35090 098.9589 225.9152 0068503 147.0558 213.4903 14.00117463259831
0 FENGYUN 1C DEB
1 35090U 99025DJS 13289.05623937  .00002097  00000-0  14216-2 0  3718
2 35090 098.9595 227.8745 0068637 141.5224 219.0863 14.00128318260115
0 FENGYUN 1C DEB
1 35090U 99025DJS 13292.05761855  .00002099  00000-0  14226-2 0  3728
2 35090 098.9599 230.8148 0068848 133.2520 227.4419 14.00139440260535
0 FENGYUN 1C DEB
1 35090U 99025DJS 13294.05852382  .00002063  00000-0  13986-2 0  3730
2 35090 098.9596 232.7753 0069003 127.7624 232.9818 14.00146122260812
